[{"OBJECT_NAME":"SHIJIAN-30B (SJ-30B)","OBJECT_ID":"2025-266B","EPOCH":"2026-03-09T22:16:30.653184","MEAN_MOTION":15.15274975,"ECCENTRICITY":0.0009234,"INCLINATION":51.7956,"RA_OF_ASC_NODE":284.3547,"ARG_OF_PERICENTER":294.0763,"MEAN_ANOMALY":65.9247,"EPHEMERIS_TYPE":0,"CLASSIFICATION_TYPE":"U","NORAD_CAT_ID":66546,"ELEMENT_SET_NO":999,"REV_AT_EPOCH":1680,"BSTAR":0.00057385906,"MEAN_MOTION_DOT":0.00010651,"MEAN_MOTION_DDOT":0},{"OBJECT_NAME":"CZ-2D DEB","OBJECT_ID":"2010-027G","EPOCH":"2026-03-07T07:54:25.300800","MEAN_MOTION":15.18267572,"ECCENTRICITY":0.0071051,"INCLINATION":97.484,"RA_OF_ASC_NODE":105.3106,"ARG_OF_PERICENTER":258.5099,"MEAN_ANOMALY":100.8151,"EPHEMERIS_TYPE":0,"CLASSIFICATION_TYPE":"U","NORAD_CAT_ID":38302,"ELEMENT_SET_NO":999,"REV_AT_EPOCH":83107,"BSTAR":0.0021438,"MEAN_MOTION_DOT":0.00047105,"MEAN_MOTION_DDOT":0}]
